{
"type": "FeatureCollection",
"name": "malpensa_poligono",
"crs": { "type": "name", "properties": { "name": "urn:ogc:def:crs:EPSG::32632" } },
"features": [
{ "type": "Feature", "properties": { "LIV_1": "1", "LIV_2": "2", "LIV_3": "4", "LIV_4": null, "LIV_5": null, "COD_TOT": "124", "SHAPE_LENG": 26687.666623900001, "DESCR": "124 - Aeroporti ed eliporti", "SHAPE_AREA": 11544632.4926, "SHAPE_LEN": 26687.666623900001, "NOME": "MALPENSA" }, "geometry": { "type": "MultiPolygon", "coordinates": [ [ [ [ 479181.63300000037998, 5055360.619400000199676 ], [ 479228.199799999594688, 5055018.777100000530481 ], [ 479318.6875, 5055042.060499999672174 ], [ 479357.908099999651313, 5055053.374099999666214 ], [ 479403.280799999833107, 5054742.996799999848008 ], [ 479465.657599999569356, 5054305.895400000736117 ], [ 479492.032399999909103, 5054298.895500000566244 ], [ 479491.032200000248849, 5054286.895600000396371 ], [ 479474.782300000078976, 5054274.395899999886751 ], [ 479520.53000000026077, 5053961.400399999693036 ], [ 479526.654400000348687, 5053883.901499999687076 ], [ 479524.654099999926984, 5053841.402100000530481 ], [ 479527.232099999673665, 5053817.780799999833107 ], [ 479546.340400000102818, 5053781.3662 ], [ 479550.003600000403821, 5053744.732100000604987 ], [ 479556.1091, 5053706.876800000667572 ], [ 479560.993300000205636, 5053648.2621 ], [ 479575.646499999798834, 5053560.340099999681115 ], [ 479586.636300000362098, 5053469.9759 ], [ 479596.40500000026077, 5053409.529400000348687 ], [ 479611.058600000105798, 5053385.106599999591708 ], [ 479609.837299999780953, 5053355.7993 ], [ 479617.16370000038296, 5053286.194299999624491 ], [ 479619.211900000460446, 5053261.614399999380112 ], [ 479631.661700000055134, 5053260.1996 ], [ 479683.292100000195205, 5053276.503499999642372 ], [ 479683.292299999855459, 5053306.394500000402331 ], [ 479672.423200000077486, 5053370.252499999478459 ], [ 479652.042999999597669, 5053402.86089999973774 ], [ 479652.043200000189245, 5053435.469200000166893 ], [ 479605.849000000394881, 5053622.967399999499321 ], [ 479580.034799999557436, 5053766.987500000745058 ], [ 479614.002100000157952, 5053783.291600000113249 ], [ 479609.926099999807775, 5053796.878399999812245 ], [ 479815.088399999774992, 5053845.790200000628829 ], [ 479959.10950000025332, 5053863.452500000596046 ], [ 479950.957000000402331, 5053802.312000000849366 ], [ 479967.260900000110269, 5053750.682 ], [ 479968.619099999777973, 5053678.67200000025332 ], [ 479982.205599999986589, 5053610.7379 ], [ 479994.490799999795854, 5053541.888699999079108 ], [ 480003.50719999987632, 5053491.359200000762939 ], [ 480047.024699999950826, 5053318.604800000786781 ], [ 480156.480200000107288, 5053321.241800000891089 ], [ 480182.153900000266731, 5053324.022600000724196 ], [ 480181.624699999578297, 5053259.993300000205636 ], [ 480177.9205, 5053206.018200000748038 ], [ 480173.157999999821186, 5053178.50139999948442 ], [ 480162.681800000369549, 5053157.908099999651313 ], [ 480164.391400000080466, 5053112.881799999624491 ], [ 480197.419499999843538, 5053123.891000000759959 ], [ 480202.106100000441074, 5053114.265699999406934 ], [ 480200.225399999879301, 5053074.776200000196695 ], [ 480202.105600000359118, 5053031.525699999183416 ], [ 480205.239599999971688, 5053013.034600000828505 ], [ 480208.373599999584258, 5052994.543400000780821 ], [ 480214.014200000092387, 5052875.447799999266863 ], [ 480334.299200000241399, 5052882.933900000527501 ], [ 480321.319600000046194, 5052777.92259999923408 ], [ 480339.781700000166893, 5052743.635500000789762 ], [ 480335.825000000186265, 5052656.598899999633431 ], [ 480337.002299999818206, 5052608.028200000524521 ], [ 480332.192800000309944, 5052542.2303 ], [ 480304.293399999849498, 5052543.5669 ], [ 480221.730100000277162, 5052547.522299999371171 ], [ 480227.465599999763072, 5052609.616100000217557 ], [ 480231.950400000438094, 5052658.522900000214577 ], [ 480230.990299999713898, 5052678.005599999800324 ], [ 480209.671900000423193, 5052697.6842 ], [ 480202.292799999937415, 5052750.980200000107288 ], [ 480187.533800000324845, 5052751.800300000235438 ], [ 480185.893699999898672, 5052714.903000000864267 ], [ 480193.400899999774992, 5052659.236999999731779 ], [ 480198.674999999813735, 5052531.31980000063777 ], [ 480183.318400000222027, 5052529.784099999815226 ], [ 480188.07909999974072, 5052412.321399999782443 ], [ 480149.828300000168383, 5052414.179700000211596 ], [ 480126.677400000393391, 5052420.794299999251962 ], [ 480109.479700000025332, 5052429.393300000578165 ], [ 480059.492700000293553, 5052445.659099999815226 ], [ 480046.792799999937415, 5052471.058800000697374 ], [ 480020.599600000306964, 5052519.477099999785423 ], [ 480015.052199999801815, 5052557.357200000435114 ], [ 479947.215499999932945, 5052556.782600000500679 ], [ 479926.721400000154972, 5052526.357100000604987 ], [ 479913.492499999701977, 5052530.987400000914931 ], [ 479899.320700000040233, 5052556.376900000497699 ], [ 479879.53969999961555, 5052577.476700000464916 ], [ 479815.457700000144541, 5052655.401000000536442 ], [ 479714.698200000450015, 5052777.925000000745058 ], [ 479679.775999999605119, 5052803.813799999654293 ], [ 479686.765599999576807, 5052748.893200000748038 ], [ 479701.418700000271201, 5052643.875199999660254 ], [ 479711.187300000339746, 5052559.616599999368191 ], [ 479722.177000000141561, 5052464.36769999936223 ], [ 479705.080900000408292, 5052457.040999999269843 ], [ 479689.518699999898672, 5052449.421800000593066 ], [ 479645.286199999973178, 5052436.540300000458956 ], [ 479547.019799999892712, 5052407.923100000247359 ], [ 479613.517199999652803, 5052105.927200000733137 ], [ 479639.204800000414252, 5051982.686599999666214 ], [ 479651.097400000318885, 5051925.630000000819564 ], [ 479654.265700000338256, 5051910.4298 ], [ 479673.515100000426173, 5051862.930600000545382 ], [ 479690.8898, 5051831.4309 ], [ 479698.014600000344217, 5051810.931099999696016 ], [ 479720.389399999752641, 5051804.931099999696016 ], [ 479783.513899999670684, 5051792.43099999986589 ], [ 479805.888500000350177, 5051782.431099999696016 ], [ 479820.138299999758601, 5051762.93129999935627 ], [ 479931.900999999605119, 5051776.573100000619888 ], [ 480031.428100000135601, 5051803.152499999850988 ], [ 479978.768299999646842, 5051703.515000000596046 ], [ 479961.511400000192225, 5051657.932 ], [ 479966.635999999940395, 5051574.433299999684095 ], [ 479966.05449999962002, 5051571.964400000870228 ], [ 479978.953499999828637, 5051506.331399999558926 ], [ 479968.370099999941885, 5051498.393899999558926 ], [ 479971.0159, 5051481.4605 ], [ 479982.128499999642372, 5051471.406400000676513 ], [ 479987.949300000444055, 5051455.531300000846386 ], [ 480000.649299999698997, 5051441.773 ], [ 480003.824300000444055, 5051435.423000000417233 ], [ 480006.470200000330806, 5051419.018799999728799 ], [ 479978.884800000116229, 5051411.610400000587106 ], [ 479978.884800000116229, 5051407.935499999672174 ], [ 479964.848699999973178, 5051352.601299999281764 ], [ 479964.707799999974668, 5051352.045499999076128 ], [ 479961.509399999864399, 5051339.436699999496341 ], [ 479961.760999999940395, 5051336.575899999588728 ], [ 479962.090800000354648, 5051332.827299999073148 ], [ 479968.633899999782443, 5051258.437899999320507 ], [ 479993.13289999961853, 5051146.439300000667572 ], [ 480001.257699999958277, 5051102.439999999478459 ], [ 479975.084999999962747, 5051118.970000000670552 ], [ 479901.695000000298023, 5051135.914000000804663 ], [ 479863.065700000151992, 5051143.851500000804663 ], [ 479768.344700000248849, 5051142.793199999257922 ], [ 479787.923899999819696, 5051051.776399999856949 ], [ 479792.6864, 5050973.459499999880791 ], [ 479792.6864, 5050897.788499999791384 ], [ 479794.273900000378489, 5050824.763399999588728 ], [ 479792.6864, 5050785.075799999758601 ], [ 479791.628100000321865, 5050749.092399999499321 ], [ 479794.803100000135601, 5050721.046499999240041 ], [ 479799.565600000321865, 5050699.879799999296665 ], [ 479794.803100000135601, 5050679.2423 ], [ 479749.823800000362098, 5050668.129799999296665 ], [ 479745.590499999932945, 5050650.138000000268221 ], [ 479735.536299999803305, 5050631.617200000211596 ], [ 479732.89049999974668, 5050609.921299999579787 ], [ 479748.76549999974668, 5050598.2796 ], [ 479765.698900000192225, 5050590.3421 ], [ 479758.290500000119209, 5050566.000399999320507 ], [ 479749.294700000435114, 5050538.48369999974966 ], [ 479763.053000000305474, 5050483.450200000777841 ], [ 479770.461400000378489, 5050444.291799999773502 ], [ 479769.402999999932945, 5050395.60840000025928 ], [ 479760.9364, 5050356.449999999254942 ], [ 479751.411299999803305, 5050306.708200000226498 ], [ 479747.178000000305474, 5050281.3081 ], [ 479747.178000000305474, 5050256.966399999335408 ], [ 479755.644700000062585, 5050227.333000000566244 ], [ 479768.8739, 5050185.528799999505281 ], [ 479776.253499999642372, 5050158.954700000584126 ], [ 479798.753499999642372, 5050173.4543999992311 ], [ 479841.502999999560416, 5050166.454199999570847 ], [ 479865.711600000038743, 5050156.953700000420213 ], [ 479863.877700000070035, 5050133.454600000753999 ], [ 479819.003100000321865, 5050138.454800000414252 ], [ 479782.378299999982119, 5050144.454900000244379 ], [ 479741.0472999997437, 5050151.487700000405312 ], [ 479713.927500000223517, 5050154.795 ], [ 479696.068099999800324, 5050218.956599999219179 ], [ 479679.531600000336766, 5050289.732799999415874 ], [ 479627.937699999660254, 5050545.717700000852346 ], [ 479297.869400000199676, 5050483.540500000119209 ], [ 479265.457799999974668, 5050410.1184 ], [ 479230.400500000454485, 5050320.159900000318885 ], [ 479187.405600000172853, 5050263.274399999529123 ], [ 479147.05379999987781, 5050220.338700000196695 ], [ 479096.785600000061095, 5050228.878499999642372 ], [ 478984.337500000372529, 5050240.123299999162555 ], [ 478888.425800000317395, 5050255.336899999529123 ], [ 478655.592000000178814, 5050284.441099999472499 ], [ 478490.888600000180304, 5050295.02449999935925 ], [ 478324.200699999928474, 5050265.920199999585748 ], [ 478007.361600000411272, 5050205.065899999812245 ], [ 477976.273000000044703, 5050210.357599999755621 ], [ 477964.694799999706447, 5050223.864099999889731 ], [ 477941.438099999912083, 5050219.019099999219179 ], [ 477939.738699999637902, 5050219.17090000025928 ], [ 477937.246799999848008, 5050239.461799999698997 ], [ 477908.142599999904633, 5050395.566299999132752 ], [ 477837.366499999538064, 5050772.598300000652671 ], [ 477849.272699999623001, 5050777.228499999269843 ], [ 477859.194600000046194, 5050787.150399999693036 ], [ 477893.590499999932945, 5050803.025499999523163 ], [ 477922.033300000242889, 5050857.926599999889731 ], [ 477934.600999999791384, 5050898.275699999183416 ], [ 477939.892699999734759, 5050932.010099999606609 ], [ 477933.939500000327826, 5051010.723799999803305 ], [ 477911.449900000356138, 5051105.3125 ], [ 477888.96030000038445, 5051156.244899999350309 ], [ 477849.272699999623001, 5051247.526399999856949 ], [ 477842.658099999651313, 5051279.937899999320507 ], [ 477828.41579999960959, 5051281.832000000402331 ], [ 477820.081399999558926, 5051311.597699999809265 ], [ 477827.622100000269711, 5051314.375800000503659 ], [ 477839.925200000405312, 5051315.566500000655651 ], [ 477851.037700000219047, 5051311.200799999758601 ], [ 477864.928399999625981, 5051306.438300000503659 ], [ 477878.025299999862909, 5051310.803999999538064 ], [ 477882.3909, 5051316.360200000926852 ], [ 477883.184700000099838, 5051323.504000000655651 ], [ 477880.803399999625981, 5051330.647700000554323 ], [ 477873.262799999676645, 5051340.966499999165535 ], [ 477858.975300000049174, 5051353.2697 ], [ 477843.894000000320375, 5051356.444700000807643 ], [ 477834.765800000168383, 5051349.697799999266863 ], [ 477827.225200000219047, 5051342.1570999994874 ], [ 477813.731399999931455, 5051338.188400000333786 ], [ 477777.218799999915063, 5051329.854000000283122 ], [ 477757.954599999822676, 5051328.602800000458956 ], [ 477618.080500000156462, 5051758.179999999701977 ], [ 477641.574400000274181, 5051767.433700000867248 ], [ 477569.475300000049174, 5052092.871799999848008 ], [ 477544.339800000190735, 5052086.918700000271201 ], [ 477535.079400000162423, 5052076.33530000038445 ], [ 477526.480399999767542, 5052067.074899999424815 ], [ 477518.542899999767542, 5052063.106100000441074 ], [ 477511.928299999795854, 5052064.428999999538064 ], [ 477497.376199999824166, 5052079.6426 ], [ 477465.6261, 5052075.012399999424815 ], [ 477529.094800000078976, 5051747.182399999350309 ], [ 477492.492300000041723, 5051742.658700000494719 ], [ 477491.081000000238419, 5051700.325999999418855 ], [ 477428.992200000211596, 5051677.748700000345707 ], [ 477426.169800000265241, 5051635.415999999269843 ], [ 477366.903400000184774, 5051632.594100000336766 ], [ 477351.381299999542534, 5051625.538699999451637 ], [ 477349.20920000039041, 5051671.521999999880791 ], [ 477328.703999999910593, 5051689.381400000303984 ], [ 477320.766400000080466, 5051738.990900000557303 ], [ 477289.677799999713898, 5051742.959599999710917 ], [ 477258.691100000403821, 5051750.706299999728799 ], [ 477250.387500000186265, 5051799.1458 ], [ 477230.941200000233948, 5051874.154200000688434 ], [ 477204.043700000271201, 5051931.645700000226498 ], [ 477206.911700000055134, 5051967.440099999308586 ], [ 477157.629700000397861, 5052413.29759999923408 ], [ 477166.82079999987036, 5052421.285800000652671 ], [ 477180.314500000327826, 5052430.810599999502301 ], [ 477196.189399999566376, 5052432.398 ], [ 477221.589200000278652, 5052424.4605 ], [ 477250.163900000043213, 5052415.7292 ], [ 477304.082399999722838, 5052393.206299999728799 ], [ 477313.838399999774992, 5052385.84180000051856 ], [ 477324.009600000455976, 5052377.930700000375509 ], [ 477338.701700000092387, 5052368.701199999079108 ], [ 477352.6402000002563, 5052361.920199999585748 ], [ 477367.708899999968708, 5052353.255699999630451 ], [ 477382.400899999774992, 5052343.460999999195337 ], [ 477394.267400000244379, 5052334.419800000265241 ], [ 477411.973100000061095, 5052316.713999999687076 ], [ 477426.85329999960959, 5052300.5152000002563 ], [ 477435.894600000232458, 5052287.3301 ], [ 477443.42879999987781, 5052274.333399999886751 ], [ 477454.353500000201166, 5052261.901699999347329 ], [ 477462.627600000239909, 5052254.834300000220537 ], [ 477470.250099999830127, 5052247.619000000879169 ], [ 477480.421400000341237, 5052230.855100000277162 ], [ 477484.000099999830127, 5052224.450899999588728 ], [ 477505.661500000394881, 5052229.7248 ], [ 477505.473199999891222, 5052238.954299999400973 ], [ 477506.603400000371039, 5052246.865399999544024 ], [ 477509.617200000211596, 5052258.166799999773502 ], [ 477513.384499999694526, 5052264.759400000795722 ], [ 477517.528400000184774, 5052269.468299999833107 ], [ 477520.918899999931455, 5052270.786800000816584 ], [ 477525.439500000327826, 5052270.221699999645352 ], [ 477528.64159999974072, 5052268.33809999935329 ], [ 477540.004499999806285, 5052254.60359999909997 ], [ 477559.847900000400841, 5052244.681800000369549 ], [ 477592.259100000374019, 5052224.838199999183416 ], [ 477616.732900000177324, 5052228.806800000369549 ], [ 477627.316200000233948, 5052241.374299999326468 ], [ 477631.285199999809265, 5052265.847899999469519 ], [ 477609.457299999892712, 5052285.030099999159575 ], [ 477581.014700000174344, 5052275.10840000025928 ], [ 477551.621600000187755, 5052292.824500000104308 ], [ 477547.101099999621511, 5052300.924000000581145 ], [ 477543.522300000302494, 5052308.4583 ], [ 477543.145700000226498, 5052318.818 ], [ 477547.289599999785423, 5052330.119400000199676 ], [ 477556.707799999974668, 5052347.636700000613928 ], [ 477561.793499999679625, 5052355.359400000423193 ], [ 477548.344100000336766, 5052364.747500000521541 ], [ 477511.848899999633431, 5052375.14750000089407 ], [ 477492.798899999819696, 5052374.089199999347329 ], [ 477472.576999999582767, 5052366.506799999624491 ], [ 477462.324400000274181, 5052357.907800000160933 ], [ 477439.834699999541044, 5052365.845300000160933 ], [ 477390.55599999986589, 5052384.3662 ], [ 477336.860700000077486, 5052403.703700000420213 ], [ 477320.013500000350177, 5052414.935200000181794 ], [ 477296.201200000010431, 5052426.047700000926852 ], [ 477281.120099999941885, 5052431.603900000452995 ], [ 477270.54839999973774, 5052449.231000000610948 ], [ 477244.089999999850988, 5052487.3311 ], [ 477222.923299999907613, 5052537.072799999266863 ], [ 477212.339999999850988, 5052581.522900000214577 ], [ 477192.231599999591708, 5052673.598099999129772 ], [ 477194.348299999721348, 5052752.973300000652671 ], [ 477207.30449999962002, 5052809.820800000801682 ], [ 477222.385700000450015, 5052825.298599999397993 ], [ 477242.229500000365078, 5052850.698200000450015 ], [ 477286.67949999962002, 5052895.147399999201298 ], [ 477320.017099999822676, 5052932.45299999974668 ], [ 477343.035699999891222, 5052949.915100000798702 ], [ 477350.849000000394881, 5052952.293099999427795 ], [ 477309.706799999810755, 5052965.698699999600649 ], [ 477288.434200000017881, 5052962.034499999135733 ], [ 477275.060499999672174, 5052937.924799999222159 ], [ 477255.847699999809265, 5052910.424599999561906 ], [ 477243.701399999670684, 5052897.139699999243021 ], [ 477237.764999999664724, 5052890.647099999710917 ], [ 477232.114199999719858, 5052882.359300000593066 ], [ 477228.723699999973178, 5052875.766799999400973 ], [ 477224.888500000350177, 5052868.44510000012815 ], [ 477220.974999999627471, 5052862.874900000169873 ], [ 477211.27170000039041, 5052849.06389999948442 ], [ 477209.699300000444055, 5052847.136499999091029 ], [ 477188.014600000344217, 5052822.7686 ], [ 477174.760900000110269, 5052811.011499999091029 ], [ 477143.128999999724329, 5052783.898900000378489 ], [ 477141.42339999973774, 5052782.437000000849366 ], [ 477116.61600000038743, 5052770.95240000076592 ], [ 477112.834699999541044, 5052778.210899999365211 ], [ 477098.693500000052154, 5052782.684000000357628 ], [ 477079.114299999549985, 5052801.204900000244379 ], [ 477062.711500000208616, 5052984.2818 ], [ 477039.646099999547005, 5052969.305800000205636 ], [ 476999.29700000025332, 5052958.061000000685453 ], [ 476998.04839999973774, 5052978.477700000628829 ], [ 476994.385099999606609, 5052998.015900000929832 ], [ 476995.606499999761581, 5053037.092299999669194 ], [ 477001.712600000202656, 5053087.158900000154972 ], [ 477026.135900000110269, 5053144.552200000733137 ], [ 477055.443799999542534, 5053205.608899999409914 ], [ 477058.857300000265241, 5053219.059900000691414 ], [ 477064.260499999858439, 5053240.351099999621511 ], [ 477058.562300000339746, 5053289.944900000467896 ], [ 477049.520899999886751, 5053368.636399999260902 ], [ 477044.548000000417233, 5053411.917500000447035 ], [ 477043.890100000426173, 5053422.401900000870228 ], [ 477043.677699999883771, 5053422.397099999710917 ], [ 477033.674300000071526, 5053422.1699 ], [ 476934.552000000141561, 5053419.918800000101328 ], [ 476929.667399999685585, 5053439.457000000402331 ], [ 476784.476700000464916, 5053430.690500000491738 ], [ 476788.268600000068545, 5053411.730900000780821 ], [ 476769.558299999684095, 5053411.1557 ], [ 476773.732099999673665, 5053484.415400000289083 ], [ 476778.206000000238419, 5053619.720300000160933 ], [ 476778.870099999941885, 5053627.748800000175834 ], [ 476893.383799999952316, 5053620.838199999183416 ], [ 476988.549999999813735, 5053605.414599999785423 ], [ 477022.46860000025481, 5053616.852099999785423 ], [ 477030.767699999734759, 5053619.650499999523163 ], [ 477031.496799999848008, 5053619.89640000090003 ], [ 477042.709800000302494, 5053441.211200000718236 ], [ 477089.092699999921024, 5053450.013499999418855 ], [ 477093.67920000012964, 5053462.153899999335408 ], [ 477225.464300000108778, 5053486.806800000369549 ], [ 477204.773900000378489, 5053632.7994 ], [ 477255.928299999795854, 5053647.33049999922514 ], [ 477305.041400000452995, 5053657.252000000327826 ], [ 477345.720800000242889, 5053666.677500000223517 ], [ 477356.138700000010431, 5053670.646199999377131 ], [ 477349.297500000335276, 5053689.369899999350309 ], [ 477381.434399999678135, 5053699.153400000184774 ], [ 477396.322200000286102, 5053692.970100000500679 ], [ 477398.306400000117719, 5053673.622700000181794 ], [ 477423.11089999973774, 5053675.1107 ], [ 477436.713899999856949, 5053679.215700000524521 ], [ 477478.866100000217557, 5053691.936000000685453 ], [ 477506.950400000438094, 5053700.410900000482798 ], [ 477564.000900000333786, 5053718.766000000759959 ], [ 477641.887299999594688, 5053743.073899999260902 ], [ 477651.913900000043213, 5053721.045199999585748 ], [ 477673.140800000168383, 5053725.214700000360608 ], [ 477695.961099999956787, 5053736.624600000679493 ], [ 477743.089700000360608, 5053748.034499999135733 ], [ 477794.187300000339746, 5053776.311200000345707 ], [ 477804.109199999831617, 5053789.2094 ], [ 477795.675699999555945, 5053806.572599999606609 ], [ 477796.171900000423193, 5053824.927799999713898 ], [ 477782.282200000248849, 5053937.043500000610948 ], [ 477768.029799999669194, 5053993.230900000780821 ], [ 477756.041100000031292, 5054042.596899999305606 ], [ 477728.53760000038892, 5054124.050799999386072 ], [ 477704.893699999898672, 5054178.638000000268221 ], [ 477705.389899999834597, 5054188.559800000861287 ], [ 477727.217799999751151, 5054183.102800000458956 ], [ 477742.596699999645352, 5054196.993100000545382 ], [ 477721.264899999834597, 5054216.340600000694394 ], [ 477704.397900000214577, 5054224.278000000864267 ], [ 477687.034799999557436, 5054223.285900000482798 ], [ 477676.616799999959767, 5054212.868100000545382 ], [ 477664.71059999987483, 5054210.387700000777841 ], [ 477646.355299999937415, 5054223.7820999994874 ], [ 477633.457200000062585, 5054246.106100000441074 ], [ 477628.992499999701977, 5054263.469100000336766 ], [ 477622.543700000271201, 5054318.534800000488758 ], [ 477591.787200000137091, 5054479.267000000923872 ], [ 477547.140399999916553, 5054671.252800000831485 ], [ 477535.23450000025332, 5054721.357599999755621 ], [ 477498.028900000266731, 5054881.097699999809265 ], [ 477498.525100000202656, 5054904.413699999451637 ], [ 477501.997899999842048, 5054919.296399999409914 ], [ 477487.611299999989569, 5054931.6985 ], [ 477473.005900000222027, 5054995.280500000342727 ], [ 477481.898000000044703, 5055005.675499999895692 ], [ 477499.889700000174344, 5055014.671399999409914 ], [ 477523.173100000247359, 5055030.017300000414252 ], [ 477552.103900000452995, 5055053.487700000405312 ], [ 477587.161000000312924, 5055063.409399999305606 ], [ 477611.634800000116229, 5055061.424900000914931 ], [ 477649.999099999666214, 5055064.070599999278784 ], [ 477661.243999999947846, 5055083.252699999138713 ], [ 477672.710400000214577, 5055098.199999999254942 ], [ 477680.335900000296533, 5055073.938200000673532 ], [ 477834.323699999600649, 5055109.921599999070168 ], [ 477821.007799999788404, 5055148.693900000303984 ], [ 477883.374800000339746, 5055167.796900000423193 ], [ 478022.280299999751151, 5055209.4679000005126 ], [ 478109.327800000086427, 5055232.6184 ], [ 478273.236299999989569, 5055286.3277000002563 ], [ 478312.724200000055134, 5055301.332900000736117 ], [ 478319.538200000301003, 5055303.9221 ], [ 478320.590599999763072, 5055304.373099999502301 ], [ 478358.431800000369549, 5055320.590500000864267 ], [ 478360.181300000287592, 5055323.389799999073148 ], [ 478376.9527000002563, 5055350.223400000482798 ], [ 478377.668800000101328, 5055351.399900000542402 ], [ 478389.917299999855459, 5055371.522099999710917 ], [ 478408.43819999974221, 5055403.933000000193715 ], [ 478415.344200000166893, 5055411.759700000286102 ], [ 478436.219399999827147, 5055435.417999999597669 ], [ 478486.22580000013113, 5055492.831700000911951 ], [ 478554.752500000409782, 5055525.242499999701977 ], [ 478648.282300000078976, 5055553.023199999704957 ], [ 478793.670099999755621, 5055603.954500000923872 ], [ 478910.350700000301003, 5055636.365299999713898 ], [ 478959.43059999961406, 5055652.107599999755621 ], [ 479106.670599999837577, 5055696.556700000539422 ], [ 479186.309700000099838, 5055724.337400000542402 ], [ 479301.138199999928474, 5055753.970100000500679 ], [ 479377.999200000427663, 5055765.082299999892712 ], [ 479463.19440000038594, 5055760.451999999582767 ], [ 479515.052199999801815, 5055746.5614 ], [ 479612.285699999891222, 5055712.298000000417233 ], [ 479709.519000000320375, 5055648.401799999177456 ], [ 479755.82050000037998, 5055610.434399999678135 ], [ 479796.565799999982119, 5055577.097300000488758 ], [ 479807.287499999627471, 5055554.376299999654293 ], [ 479551.039300000295043, 5055477.878100000321865 ], [ 479287.166199999861419, 5055396.379899999126792 ], [ 479283.213100000284612, 5055394.818600000813603 ], [ 479181.63300000037998, 5055360.619400000199676 ] ], [ [ 479656.238499999977648, 5052998.0055 ], [ 479667.228400000371039, 5052929.621799999848008 ], [ 479676.031299999915063, 5052838.652599999681115 ], [ 479747.147699999623001, 5052855.31220000050962 ], [ 479747.147900000214577, 5052887.920700000599027 ], [ 479748.507000000216067, 5052943.626499999314547 ], [ 479733.561700000427663, 5052995.256400000303984 ], [ 479709.105899999849498, 5053072.70130000077188 ], [ 479696.878299999982119, 5053173.243699999526143 ], [ 479681.933100000023842, 5053227.591099999845028 ], [ 479622.535799999721348, 5053221.724999999627471 ], [ 479624.490000000223517, 5053198.272399999201298 ], [ 479642.806599999777973, 5053094.475600000470877 ], [ 479656.238499999977648, 5052998.0055 ] ] ] ] } }
]
}
